[{"OBJECT_NAME":"STARLINK-32906","OBJECT_ID":"2025-037D","EPOCH":"2026-03-09T22:21:33.765984","MEAN_MOTION":14.98332215,"ECCENTRICITY":0.00032932,"INCLINATION":70.0028,"RA_OF_ASC_NODE":354.027,"ARG_OF_PERICENTER":275.1513,"MEAN_ANOMALY":84.927,"EPHEMERIS_TYPE":0,"CLASSIFICATION_TYPE":"U","NORAD_CAT_ID":63080,"ELEMENT_SET_NO":999,"REV_AT_EPOCH":5863,"BSTAR":0.00086720793,"MEAN_MOTION_DOT":0.0001027,"MEAN_MOTION_DDOT":0},{"OBJECT_NAME":"UNKNOWN","OBJECT_ID":"","EPOCH":"2026-03-05T12:42:13.240224","MEAN_MOTION":13.72157259,"ECCENTRICITY":0.05745387,"INCLINATION":81.9701,"RA_OF_ASC_NODE":166.9182,"ARG_OF_PERICENTER":218.8037,"MEAN_ANOMALY":137.0524,"EPHEMERIS_TYPE":0,"CLASSIFICATION_TYPE":"U","NORAD_CAT_ID":270033,"ELEMENT_SET_NO":999,"REV_AT_EPOCH":31338,"BSTAR":0.00083163209,"MEAN_MOTION_DOT":2.536e-5,"MEAN_MOTION_DDOT":0}]
